NORAD_CAT_ID,OBJECT_NAME,OBJECT_TYPE,EPOCH,MEAN_MOTION,ECCENTRICITY,INCLINATION,RA_OF_ASC_NODE,ARG_OF_PERICENTER,MEAN_ANOMALY,BSTAR,MEAN_MOTION_DOT,MEAN_MOTION_DDOT,TLE_LINE0,TLE_LINE1,TLE_LINE2,SEMIMAJOR_AXIS,PERIOD,APOGEE,PERIGEE,DECAYED
52548.0,STARLINK-3931,PAYLOAD,2023-08-09 08:00:32,15.08840014,5.33e-05,53.2168,44.0125,72.6309,287.4741,6.4707e-05,7.42e-06,0.0,0 STARLINK-3931,1 52548U 22051R   23221.33371103  .00000742  00000-0  64707-4 0  9996,2 52548  53.2168  44.0125 0000533  72.6309 287.4741 15.08840014 69105,6917.88,95.438,540.114,539.377,0.0
52548.0,STARLINK-3931,PAYLOAD,2023-08-10 11:02:05,15.08838989,5.83e-05,53.2174,38.959,107.2009,252.9047,4.4243e-05,4.17e-06,0.0,0 STARLINK-3931,1 52548U 22051R   23222.45979076  .00000417  00000-0  44243-4 0  9995,2 52548  53.2174  38.9590 0000583 107.2009 252.9047 15.08838989 69279,6917.883,95.438,540.152,539.345,0.0
52548.0,STARLINK-3931,PAYLOAD,2023-08-11 17:14:25,15.08844076,6.49e-05,53.2181,33.3063,100.2352,259.8713,0.00011797,1.591e-05,0.0,0 STARLINK-3931,1 52548U 22051R   23223.71834668  .00001591  00000-0  11797-3 0  9993,2 52548  53.2181  33.3063 0000649 100.2352 259.8713 15.08844076 69469,6917.868,95.437,540.182,539.284,0.0
52548.0,STARLINK-3931,PAYLOAD,2023-08-12 10:43:40,15.08840657,0.0001014,53.2186,30.0369,75.6602,284.4503,8.2721e-05,1.029e-05,0.0,0 STARLINK-3931,1 52548U 22051R   23224.44699193  .00001029  00000-0  82721-4 0  9998,2 52548  53.2186  30.0369 0001014  75.6602 284.4503 15.08840657 69571,6917.878,95.438,540.445,539.042,0.0
52548.0,STARLINK-3931,PAYLOAD,2023-08-12 13:54:26,15.08837436,6.53e-05,53.2179,29.4426,74.5137,285.5927,3.8758e-06,-2.26e-06,0.0,0 STARLINK-3931,1 52548U 22051R   23224.57947700 -.00000226  00000-0  38758-5 0  9993,2 52548  53.2179  29.4426 0000653  74.5137 285.5927 15.08837436 69593,6917.888,95.438,540.205,539.301,0.0
52548.0,STARLINK-3931,PAYLOAD,2023-08-13 16:56:00,15.0884161,8.38e-05,53.218,24.387,65.9054,294.2026,-2.6361e-05,-7.07e-06,0.0,0 STARLINK-3931,1 52548U 22051R   23225.70555607 -.00000707  00000-0 -26361-4 0  9991,2 52548  53.2180  24.3870 0000838  65.9054 294.2026 15.08841610 69764,6917.875,95.437,540.32,539.161,0.0
52548.0,STARLINK-3931,PAYLOAD,2023-08-15 05:29:51,15.08844065,8.86e-05,53.2182,17.547,68.6234,291.4852,0.00015178,2.129e-05,0.0,0 STARLINK-3931,1 52548U 22051R   23227.22906970  .00002129  00000-0  15178-3 0  9994,2 52548  53.2182  17.5470 0000886  68.6234 291.4852 15.08844065 69997,6917.868,95.437,540.346,539.12,0.0
52548.0,STARLINK-3931,PAYLOAD,2023-08-16 10:06:48,15.08837579,9.09e-05,53.2178,12.193,86.4333,273.6763,-8.0143e-06,-4.15e-06,0.0,0 STARLINK-3931,1 52548U 22051R   23228.42139659 -.00000415  00000-0 -80143-5 0  9993,2 52548  53.2178  12.1930 0000909  86.4333 273.6763 15.08837579 70175,6917.888,95.438,540.382,539.124,0.0
52548.0,STARLINK-3931,PAYLOAD,2023-08-17 16:19:07,15.08841712,0.0001248,53.2165,6.5471,72.6632,287.4496,0.00014749,2.06e-05,0.0,0 STARLINK-3931,1 52548U 22051R   23229.67995158  .00002060  00000-0  14749-3 0  9998,2 52548  53.2165   6.5471 0001248  72.6632 287.4496 15.08841712 70365,6917.875,95.437,540.604,538.877,0.0
52548.0,STARLINK-3931,PAYLOAD,2023-08-18 08:12:59,15.08831486,9.36e-05,53.2175,3.5727,88.2472,271.8628,5.8042e-05,6.36e-06,0.0,0 STARLINK-3931,1 52548U 22051R   23230.34235945  .00000636  00000-0  58042-4 0  9997,2 52548  53.2175   3.5727 0000936  88.2472 271.8628 15.08831486 70467,6917.906,95.438,540.419,539.124,0.0
52548.0,STARLINK-3931,PAYLOAD,2023-08-19 03:17:37,15.08840306,0.000106,53.2171,0.0025,83.8336,276.2777,8.3428e-05,1.04e-05,0.0,0 STARLINK-3931,1 52548U 22051R   23231.13723541  .00001040  00000-0  83428-4 0  9995,2 52548  53.2171   0.0025 0001060  83.8336 276.2777 15.08840306 70583,6917.879,95.438,540.478,539.011,0.0
52548.0,STARLINK-3931,PAYLOAD,2023-08-20 12:40:43,15.08829989,7.02e-05,53.2185,353.7573,88.8563,271.251,0.00012007,1.623e-05,0.0,0 STARLINK-3931,1 52548U 22051R   23232.52828206  .00001623  00000-0  12007-3 0  9994,2 52548  53.2185 353.7573 0000702  88.8563 271.2510 15.08829989 70790,6917.911,95.438,540.262,539.29,0.0
52548.0,STARLINK-3931,PAYLOAD,2023-08-20 15:51:29,15.08837208,8.24e-05,53.218,353.1625,87.7139,272.3947,0.00013155,1.806e-05,0.0,0 STARLINK-3931,1 52548U 22051R   23232.66075713  .00001806  00000-0  13155-3 0  9994,2 52548  53.2180 353.1625 0000824  87.7139 272.3947 15.08837208 70811,6917.889,95.438,540.324,539.184,0.0
52548.0,STARLINK-3931,PAYLOAD,2023-08-22 12:22:17,15.08839908,9.97e-05,53.218,344.8378,62.9354,297.1739,4.0968e-06,-2.23e-06,0.0,0 STARLINK-3931,1 52548U 22051R   23234.51548283 -.00000223  00000-0  40968-5 0  9994,2 52548  53.2180 344.8378 0000997  62.9354 297.1739 15.08839908 71092,6917.881,95.438,540.435,539.056,0.0
52548.0,STARLINK-3931,PAYLOAD,2023-08-24 12:03:51,15.08842202,9.98e-05,53.2181,335.9156,101.3216,258.7888,3.3147e-05,2.4e-06,0.0,0 STARLINK-3931,1 52548U 22051R   23236.50267969  .00000240  00000-0  33147-4 0  9992,2 52548  53.2181 335.9156 0000998 101.3216 258.7888 15.08842202 71329,6917.874,95.437,540.429,539.048,0.0
52548.0,STARLINK-3931,PAYLOAD,2023-08-25 11:54:38,15.08837822,0.000113,53.2189,331.4551,91.0246,269.0876,3.7858e-05,3.15e-06,0.0,0 STARLINK-3931,1 52548U 22051R   23237.49628282  .00000315  00000-0  37858-4 0  9996,2 52548  53.2189 331.4551 0001130  91.0246 269.0876 15.08837822 71474,6917.887,95.438,540.534,538.97,0.0
52548.0,STARLINK-3931,PAYLOAD,2023-08-26 11:45:26,15.08836321,0.0001221,53.2182,326.9965,84.9772,275.136,3.8664e-05,3.27e-06,0.0,0 STARLINK-3931,1 52548U 22051R   23238.48988739  .00000327  00000-0  38664-4 0  9991,2 52548  53.2182 326.9965 0001221  84.9772 275.1360 15.08836321 71627,6917.892,95.438,540.601,538.912,0.0
52548.0,STARLINK-3931,PAYLOAD,2023-08-27 10:00:50,15.08839316,0.0001149,53.2178,322.8333,76.6988,283.4132,8.5242e-05,1.069e-05,0.0,0 STARLINK-3931,1 52548U 22051R   23239.41724546  .00001069  00000-0  85242-4 0  9997,2 52548  53.2178 322.8333 0001149  76.6988 283.4132 15.08839316 71831,6917.882,95.438,540.542,538.953,0.0
52548.0,STARLINK-3931,PAYLOAD,2023-08-27 14:46:59,15.08844829,0.0001184,53.2179,321.9408,75.3399,284.7725,0.00012581,1.715e-05,0.0,0 STARLINK-3931,1 52548U 22051R   23239.61596082  .00001715  00000-0  12581-3 0  9994,2 52548  53.2179 321.9408 0001184  75.3399 284.7725 15.08844829 71798,6917.866,95.437,540.55,538.912,0.0
52548.0,STARLINK-3931,PAYLOAD,2023-08-28 11:27:00,15.08836063,0.0001167,53.2177,318.0742,98.2635,261.849,1.0783e-05,-1.16e-06,0.0,0 STARLINK-3931,1 52548U 22051R   23240.47709142 -.00000116  00000-0  10783-4 0  9991,2 52548  53.2177 318.0742 0001167  98.2635 261.8490 15.08836063 71990,6917.892,95.438,540.565,538.95,0.0
52548.0,STARLINK-3931,PAYLOAD,2023-08-28 13:02:23,15.08841529,0.00012,53.2179,317.7771,81.5563,278.5565,6.2482e-05,7.07e-06,0.0,0 STARLINK-3931,1 52548U 22051R   23240.54332716  .00000707  00000-0  62482-4 0  9996,2 52548  53.2179 317.7771 0001200  81.5563 278.5565 15.08841529 71938,6917.876,95.437,540.571,538.911,0.0
52548.0,STARLINK-3931,PAYLOAD,2023-08-29 09:42:24,15.08844563,0.0001253,53.2171,313.9118,86.9557,273.1578,5.254e-05,5.48e-06,0.0,0 STARLINK-3931,1 52548U 22051R   23241.40444495  .00000548  00000-0  52540-4 0  9997,2 52548  53.2171 313.9118 0001253  86.9557 273.1578 15.08844563 72132,6917.866,95.437,540.598,538.865,0.0
52548.0,STARLINK-3931,PAYLOAD,2023-08-29 11:17:47,15.08846055,0.0001274,53.2172,313.6146,81.8728,278.2409,5.6529e-05,6.12e-06,0.0,0 STARLINK-3931,1 52548U 22051R   23241.47068422  .00000612  00000-0  56529-4 0  9999,2 52548  53.2172 313.6146 0001274  81.8728 278.2409 15.08846055 72078,6917.862,95.437,540.608,538.846,0.0
52548.0,STARLINK-3931,PAYLOAD,2023-08-30 15:54:43,15.08841813,0.000128,53.2174,308.2625,90.1715,269.9424,8.5392e-05,1.071e-05,0.0,0 STARLINK-3931,1 52548U 22051R   23242.66300533  .00001071  00000-0  85392-4 0  9993,2 52548  53.2174 308.2625 0001280  90.1715 269.9424 15.08841813 72327,6917.875,95.437,540.625,538.854,0.0
52548.0,STARLINK-3931,PAYLOAD,2023-08-31 04:37:49,15.08838597,0.0001251,53.217,305.8834,88.483,271.6306,8.0044e-06,-1.6e-06,0.0,0 STARLINK-3931,1 52548U 22051R   23243.19292978 -.00000160  00000-0  80044-5 0  9994,2 52548  53.2170 305.8834 0001251  88.4830 271.6306 15.08838597 72407,6917.885,95.438,540.615,538.884,0.0
52548.0,STARLINK-3931,PAYLOAD,2023-09-01 02:53:10,15.0879583,0.0001374,53.2175,301.7281,321.841,38.2485,0.0015895,0.00025069,0.0,0 STARLINK-3931,1 52548U 22051R   23244.12026534  .00025069  00000-0  15895-2 0  9994,2 52548  53.2175 301.7281 0001374 321.8410  38.2485 15.08795830 72549,6918.015,95.44,540.831,538.93,0.0
52548.0,STARLINK-3931,PAYLOAD,2023-09-01 10:50:18,15.08655249,0.0001257,53.2175,300.24,285.2245,74.8608,0.00023391,3.419e-05,0.0,0 STARLINK-3931,1 52548U 22051R   23244.45160425  .00003419  00000-0  23391-3 0  9994,2 52548  53.2175 300.2400 0001257 285.2245  74.8608 15.08655249 72592,6918.445,95.449,541.18,539.441,0.0
52548.0,STARLINK-3931,PAYLOAD,2023-09-01 20:22:28,15.08829801,0.000126,53.2172,298.4516,89.9058,270.2078,-7.2613e-05,-1.443e-05,0.0,0 STARLINK-3931,1 52548U 22051R   23244.84893873 -.00001443  00000-0 -72613-4 0  9996,2 52548  53.2172 298.4516 0001260  89.9058 270.2078 15.08829801 72657,6917.912,95.438,540.648,538.905,0.0
52548.0,STARLINK-3931,PAYLOAD,2023-09-02 10:40:55,15.0883796,0.0001145,53.2197,295.7747,88.2141,271.8983,4.3277e-05,4.01e-06,0.0,0 STARLINK-3931,1 52548U 22051R   23245.44509166  .00000401  00000-0  43277-4 0  9997,2 52548  53.2197 295.7747 0001145  88.2141 271.8983 15.08837960 72744,6917.887,95.438,540.544,538.96,0.0
52548.0,STARLINK-3931,PAYLOAD,2023-09-02 20:13:14,15.08843627,0.0001271,53.2195,293.9899,88.1571,271.9566,6.648e-05,7.7e-06,0.0,0 STARLINK-3931,1 52548U 22051R   23245.84252802  .00000770  00000-0  66480-4 0  9993,2 52548  53.2195 293.9899 0001271  88.1571 271.9566 15.08843627 72730,6917.869,95.437,540.614,538.855,0.0
